CCSDS_OMM_VERS,COMMENT,CREATION_DATE,ORIGINATOR,OBJECT_NAME,OBJECT_ID,CENTER_NAME,REF_FRAME,TIME_SYSTEM,MEAN_ELEMENT_THEORY,EPOCH,MEAN_MOTION,ECCENTRICITY,INCLINATION,RA_OF_ASC_NODE,ARG_OF_PERICENTER,MEAN_ANOMALY,EPHEMERIS_TYPE,CLASSIFICATION_TYPE,NORAD_CAT_ID,ELEMENT_SET_NO,REV_AT_EPOCH,BSTAR,MEAN_MOTION_DOT,MEAN_MOTION_DDOT,SEMIMAJOR_AXIS,PERIOD,APOAPSIS,PERIAPSIS,OBJECT_TYPE,RCS_SIZE,COUNTRY_CODE,LAUNCH_DATE,SITE,DECAY_DATE,FILE,GP_ID,TLE_LINE0,TLE_LINE1,TLE_LINE2,NORAD_KEY,JCAT,DeepCat,Satcat,Piece,Active,Type,Name,LDate,Parent,Owner,State,SDate,ExpandedStatus,DDate,ODate,Period,Perigee,PF,Apogee,AF,Inc,IF,OpOrbit,SATCAT_KEY
3.0,GENERATED VIA SPACE-TRACK.ORG API,2026-05-06T14:46:56,18 SPCS,RADUGA 19,1986-082A,EARTH,TEME,UTC,SGP4,2026-05-06T06:20:57.235776,0.9846192,0.0009546,11.2201,325.6586,191.4297,173.7517,0,U,17046,999,14250,0.00000000000000,-0.00000156,0.0000000000000,42679.859,1462.494,36342.466,36260.982,PAYLOAD,LARGE,CIS,1986-10-25,TTMTR,,5177295,322301488,0 RADUGA 19,1 17046U 86082A   26126.26455134 -.00000156  00000-0  00000+0 0  9991,2 17046  11.2201 325.6586 0009546 191.4297 173.7517  0.98461920142501,17046,S17046,-,17046,1986-082A,P,P,Raduga,1986 Oct 25,S17065,VVKOV,SU,1986 Oct 25 2220?,In Earth orbit,-,2026 May  5 ,    1462.499 ,   36261, ,   36342, , 11.22 , ,GEO/ID,17046
3.0,GENERATED VIA SPACE-TRACK.ORG API,2026-05-06T10:08:52,18 SPCS,INSAT 1B,1983-089B,EARTH,TEME,UTC,SGP4,2026-05-06T01:32:04.353792,1.00163512,0.00082128,11.2249,327.3096,245.2942,112.6967,0,U,14318,999,12478,0.00000000000000,-0.00000111,0.0000000000000,42195.112,1437.649,35851.631,35782.323,PAYLOAD,LARGE,IND,1983-08-30,AFETR,,5176958,322262770,0 INSAT 1B,1 14318U 83089B   26126.06393928 -.00000111  00000-0  00000-0 0  9996,2 14318  11.2249 327.3096 0008213 245.2942 112.6967  1.00163512124783,14318,S14318,-,14318,1983-089B,P,P ---S-,Insat 1B,1983 Aug 30,S14524,ISRO,IN,1983 Aug 30 0914?,In Earth orbit,-,2026 May  5 ,    1437.648 ,   35782, ,   35851, , 11.23 , ,GEO/ID,14318
3.0,GENERATED VIA SPACE-TRACK.ORG API,2026-05-06T14:56:52,18 SPCS,EUROBIRD 4A(EUTELSAT W1),2000-052A,EARTH,TEME,UTC,SGP4,2026-05-06T11:53:00.508992,0.98181209,0.0011819,11.2523,46.4253,297.8423,189.8848,0,U,26487,999,9277,0.00000000000000,-0.00000161,0.0000000000000,42761.171,1466.676,36433.576,36332.497,PAYLOAD,LARGE,EUTE,2000-09-06,FRGUI,,5177592,322307328,0 EUROBIRD 4A(EUTELSAT W1),1 26487U 00052A   26126.49514478 -.00000161  00000-0  00000+0 0  9991,2 26487  11.2523  46.4253 0011819 297.8423 189.8848  0.98181209 92771,26487,S26487,-,26487,2000-052A,P,P,EUTELSAT 4A,2000 Sep  6,S26488,EUTSA,F,2000 Sep  6 2253,In Earth orbit,-,2026 May  4 ,    1466.666 ,   36331, ,   36433, , 11.25 , ,GEO/ID,26487
3.0,GENERATED VIA SPACE-TRACK.ORG API,2026-05-06T14:56:52,18 SPCS,UFO 9 (USA 140),1998-058A,EARTH,TEME,UTC,SGP4,2026-05-06T07:25:21.671904,0.98175732,0.0013058,11.258,21.5211,349.9652,201.4463,0,U,25501,999,9941,0.00000000000000,-0.00000019,0.0000000000000,42762.761,1466.758,36440.466,36328.787,PAYLOAD,LARGE,US,1998-10-20,AFETR,,5177565,322307491,0 UFO 9 (USA 140),1 25501U 98058A   26126.30927861 -.00000019  00000-0  00000+0 0  9996,2 25501  11.2580  21.5211 0013058 349.9652 201.4463  0.98175732 99414,25501,S25501,-,25501,1998-058A,P,P,UHF F/O F9,1998 Oct 20,S25502,PMW146,US,1998 Oct 20 0746,In Earth orbit,-,2026 May  5 ,    1466.760 ,   36328, ,   36440, , 11.26 , ,GEO/ID,25501
3.0,GENERATED VIA SPACE-TRACK.ORG API,2026-05-06T07:56:53,18 SPCS,INSAT 2E (APR-1),1999-016A,EARTH,TEME,UTC,SGP4,2026-05-05T21:51:16.365312,0.99654064,0.0010111,11.2718,40.6609,299.1649,321.1068,0,U,25666,999,5101,0.00000000000000,-0.00000256,0.0000000000000,42338.795,1444.999,36003.469,35917.852,PAYLOAD,LARGE,IND,1999-04-02,FRGUI,,5176744,322254253,0 INSAT 2E (APR-1),1 25666U 99016A   26125.91060608 -.00000256  00000-0  00000+0 0  9999,2 25666  11.2718  40.6609 0010111 299.1649 321.1068  0.99654064 51017,25666,S25666,-,25666,1999-016A,P,P,Insat 2E,1999 Apr  2,S25667,ISRO,IN,1999 Apr  2 2224,In Earth orbit,-,2026 May  4 ,    1444.990 ,   35917, ,   36003, , 11.27 , ,GEO/ID,25666
3.0,GENERATED VIA SPACE-TRACK.ORG API,2026-05-06T10:08:52,18 SPCS,GSAT 3 (EDUSAT),2004-036A,EARTH,TEME,UTC,SGP4,2026-05-06T01:03:14.618880,0.99270024,0.00023793,11.2801,41.7212,171.4997,3.9445,0,U,28417,999,7869,0.00000000000000,-0.00000245,0.0000000000000,42447.921,1450.589,36079.886,36059.686,PAYLOAD,LARGE,IND,2004-09-20,SRI,,5176958,322266457,0 GSAT 3 (EDUSAT),1 28417U 04036A   26126.04391920 -.00000245  00000-0  00000-0 0  9992,2 28417  11.2801  41.7212 0002379 171.4997   3.9445  0.99270024 78691,28417,S28417,-,28417,2004-036A,P,P,EDUSAT,2004 Sep 20,S28418,ISRO,IN,2004 Sep 20 1047,In Earth orbit,-,2026 May  5 ,    1450.587 ,   36059, ,   36079, , 11.28 , ,GEO/ID,28417
3.0,GENERATED VIA SPACE-TRACK.ORG API,2026-05-06T10:08:52,18 SPCS,BD 1 03,2003-021A,EARTH,TEME,UTC,SGP4,2026-05-06T02:44:34.897920,0.99779531,0.00190751,11.2988,41.574,306.4882,250.2258,0,U,27813,999,8388,0.00000000000000,-0.00000248,0.0000000000000,42303.296,1443.182,36005.855,35844.467,PAYLOAD,LARGE,PRC,2003-05-24,XSC,,5176958,322266833,0 BD 1 03,1 27813U 03021A   26126.11429280 -.00000248  00000-0  00000-0 0  9996,2 27813  11.2988  41.5740 0019075 306.4882 250.2258  0.99779531 83887,27813,S27813,-,27813,2003-021A,P,P      G,Beidou DSW 3,2003 May 24,S27814,CNSA,CN,2003 May 24 1654,In Earth orbit,-,2026 May  5 ,    1443.179 ,   35844, ,   36005, , 11.30 , ,GEO/ID,27813
3.0,GENERATED VIA SPACE-TRACK.ORG API,2026-05-06T14:46:56,18 SPCS,TVSAT 1,1987-095A,EARTH,TEME,UTC,SGP4,2026-05-06T11:05:21.895008,0.98919245,0.0062999,11.3083,328.26,131.1721,220.1259,0,U,18570,999,12842,0.00000000000000,-0.00000122,0.0000000000000,42548.212,1455.733,36438.126,35902.027,PAYLOAD,LARGE,GER,1987-11-21,FRGUI,,5177305,322301207,0 TVSAT 1,1 18570U 87095A   26126.46205897 -.00000122  00000-0  00000+0 0  9993,2 18570  11.3083 328.2600 0062999 131.1721 220.1259  0.98919245128426,18570,S18570,-,18570,1987-095A,P,P,TV-SAT,1987 Nov 21,A04469,DBP,D,1987 Nov 21 0238,In Earth orbit,-,2026 May  4 ,    1455.722 ,   35901, ,   36437, , 11.31 , ,GEO/ID,18570
3.0,GENERATED VIA SPACE-TRACK.ORG API,2026-05-06T14:46:56,18 SPCS,INTELSAT 503,1981-119A,EARTH,TEME,UTC,SGP4,2026-05-06T08:56:38.464224,0.99470992,0.004676,11.3166,327.3723,268.9791,284.4034,0,U,12994,999,12628,0.00000000000000,-0.00000244,0.0000000000000,42390.728,1447.658,36210.812,35814.374,PAYLOAD,LARGE,ITSO,1981-12-15,AFETR,,5177241,322299373,0 INTELSAT 503,1 12994U 81119A   26126.37266741 -.00000244  00000-0  00000+0 0  9998,2 12994  11.3166 327.3723 0046760 268.9791 284.4034  0.99470992126280,12994,S12994,-,12994,1981-119A,P,P,INTELSAT 503,1981 Dec 15,S13007,SESINTU,US,1981 Dec 16 0002,In Earth orbit,-,2026 May  4 ,    1447.660 ,   35814, ,   36210, , 11.32 , ,GEO/ID,12994
3.0,GENERATED VIA SPACE-TRACK.ORG API,2026-05-06T15:06:46,18 SPCS,RASCOM 1,2007-063A,EARTH,TEME,UTC,SGP4,2026-05-06T11:27:28.574784,0.99060758,0.000762,11.3183,42.0081,74.2568,9.1741,0,U,32387,999,6706,0.00000000000000,-0.00000017,0.0000000000000,42507.681,1453.653,36161.937,36097.155,PAYLOAD,LARGE,RASC,2007-12-21,FRGUI,,5177789,322312153,0 RASCOM 1,1 32387U 07063A   26126.47741406 -.00000017  00000-0  00000+0 0  9997,2 32387  11.3183  42.0081 0007620  74.2568   9.1741  0.99060758 67069,32387,S32387,-,32387,2007-063A,P,P,RASCOM-QAF 1,2007 Dec 21,S32390,I-RASC/RSQ,I-RASC,2007 Dec 21 2210,In Earth orbit,-,2026 May  4 ,    1453.646 ,   36097, ,   36161, , 11.31 , ,GEO/ID,32387
3.0,GENERATED VIA SPACE-TRACK.ORG API,2026-05-06T14:46:56,18 SPCS,INTELSAT 502,1980-098A,EARTH,TEME,UTC,SGP4,2026-05-06T07:57:53.358048,0.98893375,0.0010719,11.3506,327.2496,330.9904,36.642,0,U,12089,999,13331,0.00000000000000,-0.00000220,0.0000000000000,42555.632,1456.114,36223.112,36131.881,PAYLOAD,LARGE,ITSO,1980-12-06,AFETR,,5177222,322299141,0 INTELSAT 502,1 12089U 80098A   26126.33186757 -.00000220  00000-0  00000+0 0  9996,2 12089  11.3506 327.2496 0010719 330.9904  36.6420  0.98893375133311,12089,S12089,-,12089,1980-098A,P,P,INTELSAT 502,1980 Dec  6,S12445,SESINTU,US,1980 Dec  6 2358,In Earth orbit,-,2026 May  5 ,    1456.116 ,   36131, ,   36223, , 11.35 , ,GEO/ID,12089
3.0,GENERATED VIA SPACE-TRACK.ORG API,2026-05-06T14:56:52,18 SPCS,AMC-5 (GE-5),1998-063B,EARTH,TEME,UTC,SGP4,2026-05-06T10:00:58.917312,0.99330394,0.0004131,11.3569,40.5519,1.1841,206.7783,0,U,25516,999,10041,0.00000000000000,0.00000082,0.0000000000000,42430.72,1449.707,36070.113,36035.057,PAYLOAD,LARGE,SES,1998-10-28,FRGUI,,5177565,322307495,0 AMC-5 (GE-5),1 25516U 98063B   26126.41734858  .00000082  00000-0  00000+0 0  9991,2 25516  11.3569  40.5519 0004131   1.1841 206.7783  0.99330394100413,25516,S25516,-,25516,1998-063B,P,P,AMC 5,1998 Oct 28,S25517,SESSAP,US,1998 Oct 28 2238,In Earth orbit,-,2026 May  4 ,    1449.713 ,   36035, ,   36070, , 11.35 , ,GEO/ID,25516
3.0,GENERATED VIA SPACE-TRACK.ORG API,2026-05-06T14:56:52,18 SPCS,RADUGA 21,1987-100A,EARTH,TEME,UTC,SGP4,2026-05-06T12:36:12.387168,1.00362332,0.0001121,11.3661,325.5709,317.6029,28.4335,0,U,18631,999,14066,0.00000000000000,-0.00000140,0.0000000000000,42139.367,1434.801,35765.956,35756.509,PAYLOAD,LARGE,CIS,1987-12-10,TTMTR,,5177386,322302201,0 RADUGA 21,1 18631U 87100A   26126.52514337 -.00000140  00000-0  00000+0 0  9997,2 18631  11.3661 325.5709 0001121 317.6029  28.4335  1.00362332140665,18631,S18631,-,18631,1987-100A,P,P,Raduga,1987 Dec 10,S18634,VVKOV,SU,1987 Dec 10 1807?,In Earth orbit,-,2026 May  5 ,    1434.800 ,   35756, ,   35765, , 11.37 , ,GEO/ID,18631
